{
  "type": "FeatureCollection",
  "features": [
    {
      "type": "Feature",
      "properties": {
        "norad_id": 66568,
        "name": "STARLINK-35803",
        "group": "last-30-days",
        "lat": 41.00112825737353,
        "lon": -177.46603816729822,
        "alt_km": 406.132471952119,
        "timestamp": "2025-12-21T05:44:50.289065+00:00",
        "meta_object_name": "STARLINK-35803",
        "meta_object_id": "2025-268M",
        "meta_epoch": "2025-12-20T12:17:43.044000",
        "meta_mean_motion": 15.51101192,
        "meta_eccentricity": 3.888e-05,
        "meta_inclination": 42.9989,
        "meta_ra_of_asc_node": 75.6898,
        "meta_arg_of_pericenter": 57.0977,
        "meta_mean_anomaly": 302.992,
        "meta_ephemeris_type": 0,
        "meta_classification_type": "U",
        "meta_norad_cat_id": 66568,
        "meta_element_set_no": 999,
        "meta_rev_at_epoch": 583,
        "meta_bstar": 0.0026939166,
        "meta_mean_motion_dot": 0.00164085,
        "meta_mean_motion_ddot": 0,
        "tle_line1": "1 66568U 25268M   25354.51230375  .00164085  00000+0  26939-2 0  9993",
        "tle_line2": "2 66568  42.9989  75.6898 0000388  57.0977 302.9920 15.51101192  5838"
      },
      "geometry": {
        "type": "Point",
        "coordinates": [
          -177.46603816729822,
          41.00112825737353
        ]
      }
    },
    {
      "type": "Feature",
      "properties": {
        "norad_id": 66569,
        "name": "STARLINK-35835",
        "group": "last-30-days",
        "lat": 38.29632332430112,
        "lon": -166.51614863679217,
        "alt_km": 400.61143530395384,
        "timestamp": "2025-12-21T05:44:50.289076+00:00",
        "meta_object_name": "STARLINK-35835",
        "meta_object_id": "2025-268N",
        "meta_epoch": "2025-12-19T14:38:53.453760",
        "meta_mean_motion": 15.51068809,
        "meta_eccentricity": 0.000157,
        "meta_inclination": 43.0021,
        "meta_ra_of_asc_node": 80.9616,
        "meta_arg_of_pericenter": 180.5459,
        "meta_mean_anomaly": 179.5399,
        "meta_ephemeris_type": 0,
        "meta_classification_type": "U",
        "meta_norad_cat_id": 66569,
        "meta_element_set_no": 999,
        "meta_rev_at_epoch": 569,
        "meta_bstar": 0.01158,
        "meta_mean_motion_dot": 0.0075028,
        "meta_mean_motion_ddot": 0,
        "tle_line1": "1 66569U 25268N   25353.61034090  .00750280  00000+0  11580-1 0  9993",
        "tle_line2": "2 66569  43.0021  80.9616 0001570 180.5459 179.5399 15.51068809  5695"
      },
      "geometry": {
        "type": "Point",
        "coordinates": [
          -166.51614863679217,
          38.29632332430112
        ]
      }
    },
    {
      "type": "Feature",
      "properties": {
        "norad_id": 66570,
        "name": "STARLINK-35834",
        "group": "last-30-days",
        "lat": 38.465714371797596,
        "lon": -167.0732612183675,
        "alt_km": 403.77307620673764,
        "timestamp": "2025-12-21T05:44:50.289087+00:00",
        "meta_object_name": "STARLINK-35834",
        "meta_object_id": "2025-268P",
        "meta_epoch": "2025-12-19T14:38:22.069824",
        "meta_mean_motion": 15.5108495,
        "meta_eccentricity": 0.0001238,
        "meta_inclination": 43.0034,
        "meta_ra_of_asc_node": 80.9577,
        "meta_arg_of_pericenter": 245.0703,
        "meta_mean_anomaly": 115.0029,
        "meta_ephemeris_type": 0,
        "meta_classification_type": "U",
        "meta_norad_cat_id": 66570,
        "meta_element_set_no": 999,
        "meta_rev_at_epoch": 569,
        "meta_bstar": 0.0072465,
        "meta_mean_motion_dot": 0.00458871,
        "meta_mean_motion_ddot": 0,
        "tle_line1": "1 66570U 25268P   25353.60997766  .00458871  00000+0  72465-2 0  9993",
        "tle_line2": "2 66570  43.0034  80.9577 0001238 245.0703 115.0029 15.51084950  5697"
      },
      "geometry": {
        "type": "Point",
        "coordinates": [
          -167.0732612183675,
          38.465714371797596
        ]
      }
    },
    {
      "type": "Feature",
      "properties": {
        "norad_id": 66571,
        "name": "STARLINK-35836",
        "group": "last-30-days",
        "lat": 29.86176237241349,
        "lon": -146.66934311086393,
        "alt_km": 394.00940222786903,
        "timestamp": "2025-12-21T05:44:50.289097+00:00",
        "meta_object_name": "STARLINK-35836",
        "meta_object_id": "2025-268Q",
        "meta_epoch": "2025-12-20T22:00:01.999584",
        "meta_mean_motion": 15.56334552,
        "meta_eccentricity": 0.00018041,
        "meta_inclination": 43,
        "meta_ra_of_asc_node": 73.2698,
        "meta_arg_of_pericenter": 264.4545,
        "meta_mean_anomaly": 217.8614,
        "meta_ephemeris_type": 0,
        "meta_classification_type": "U",
        "meta_norad_cat_id": 66571,
        "meta_element_set_no": 999,
        "meta_rev_at_epoch": 598,
        "meta_bstar": 0.002544341,
        "meta_mean_motion_dot": 0.00188104,
        "meta_mean_motion_ddot": 0,
        "tle_line1": "1 66571U 25268Q   25354.91668981  .00188104  00000+0  25443-2 0  9996",
        "tle_line2": "2 66571  43.0000  73.2698 0001804 264.4545 217.8614 15.56334552  5982"
      },
      "geometry": {
        "type": "Point",
        "coordinates": [
          -146.66934311086393,
          29.86176237241349
        ]
      }
    },
    {
      "type": "Feature",
      "properties": {
        "norad_id": 66572,
        "name": "STARLINK-35870",
        "group": "last-30-days",
        "lat": 38.56634136528096,
        "lon": -167.42613154536252,
        "alt_km": 403.67364988396,
        "timestamp": "2025-12-21T05:44:50.289108+00:00",
        "meta_object_name": "STARLINK-35870",
        "meta_object_id": "2025-268R",
        "meta_epoch": "2025-12-19T14:37:25.234176",
        "meta_mean_motion": 15.50965919,
        "meta_eccentricity": 0.0004838,
        "meta_inclination": 42.9991,
        "meta_ra_of_asc_node": 80.9528,
        "meta_arg_of_pericenter": 97.5171,
        "meta_mean_anomaly": 262.6239,
        "meta_ephemeris_type": 0,
        "meta_classification_type": "U",
        "meta_norad_cat_id": 66572,
        "meta_element_set_no": 999,
        "meta_rev_at_epoch": 569,
        "meta_bstar": 0.0015119,
        "meta_mean_motion_dot": 0.00090663,
        "meta_mean_motion_ddot": 0,
        "tle_line1": "1 66572U 25268R   25353.60931984  .00090663  00000+0  15119-2 0  9999",
        "tle_line2": "2 66572  42.9991  80.9528 0004838  97.5171 262.6239 15.50965919  5697"
      },
      "geometry": {
        "type": "Point",
        "coordinates": [
          -167.42613154536252,
          38.56634136528096
        ]
      }
    },
    {
      "type": "Feature",
      "properties": {
        "norad_id": 66573,
        "name": "STARLINK-35650",
        "group": "last-30-days",
        "lat": 37.04977763608738,
        "lon": -162.70694904547045,
        "alt_km": 402.3312894009523,
        "timestamp": "2025-12-21T05:44:50.289118+00:00",
        "meta_object_name": "STARLINK-35650",
        "meta_object_id": "2025-268S",
        "meta_epoch": "2025-12-19T14:36:55.904832",
        "meta_mean_motion": 15.50859773,
        "meta_eccentricity": 0.0003722,
        "meta_inclination": 43.0011,
        "meta_ra_of_asc_node": 80.9506,
        "meta_arg_of_pericenter": 102.75,
        "meta_mean_anomaly": 257.3776,
        "meta_ephemeris_type": 0,
        "meta_classification_type": "U",
        "meta_norad_cat_id": 66573,
        "meta_element_set_no": 999,
        "meta_rev_at_epoch": 569,
        "meta_bstar": 0.0063018,
        "meta_mean_motion_dot": 0.00392409,
        "meta_mean_motion_ddot": 0,
        "tle_line1": "1 66573U 25268S   25353.60898038  .00392409  00000+0  63018-2 0  9996",
        "tle_line2": "2 66573  43.0011  80.9506 0003722 102.7500 257.3776 15.50859773  5692"
      },
      "geometry": {
        "type": "Point",
        "coordinates": [
          -162.70694904547045,
          37.04977763608738
        ]
      }
    },
    {
      "type": "Feature",
      "properties": {
        "norad_id": 66574,
        "name": "STARLINK-35812",
        "group": "last-30-days",
        "lat": 26.621087186631396,
        "lon": -141.1912306796868,
        "alt_km": 394.6541503264707,
        "timestamp": "2025-12-21T05:44:50.289129+00:00",
        "meta_object_name": "STARLINK-35812",
        "meta_object_id": "2025-268T",
        "meta_epoch": "2025-12-20T22:00:01.999584",
        "meta_mean_motion": 15.56368181,
        "meta_eccentricity": 0.00017251,
        "meta_inclination": 43.0019,
        "meta_ra_of_asc_node": 73.2509,
        "meta_arg_of_pericenter": 267.7724,
        "meta_mean_anomaly": 220.3809,
        "meta_ephemeris_type": 0,
        "meta_classification_type": "U",
        "meta_norad_cat_id": 66574,
        "meta_element_set_no": 999,
        "meta_rev_at_epoch": 598,
        "meta_bstar": 0.00045599532,
        "meta_mean_motion_dot": 0.00032796,
        "meta_mean_motion_ddot": 0,
        "tle_line1": "1 66574U 25268T   25354.91668981  .00032796  00000+0  45600-3 0  9992",
        "tle_line2": "2 66574  43.0019  73.2509 0001725 267.7724 220.3809 15.56368181  5983"
      },
      "geometry": {
        "type": "Point",
        "coordinates": [
          -141.1912306796868,
          26.621087186631396
        ]
      }
    }
  ]
}